$$SOE
2461302.500000000, A.D. 2026-Sep-19 00:00:00.0000, -5.280053963670208E+08, -1.354695905886433E+08, 8.072292233147612E+07,
2461309.500000000, A.D. 2026-Sep-26 00:00:00.0000, -5.265908280667456E+08, -1.444595017662678E+08, 8.128640663860089E+07,
2461316.500000000, A.D. 2026-Oct-03 00:00:00.0000, -5.250243019253107E+08, -1.534077078037503E+08, 8.182643093622361E+07,
2461323.500000000, A.D. 2026-Oct-10 00:00:00.0000, -5.233070918829087E+08, -1.623118697923339E+08, 8.234296746975607E+07,
2461330.500000000, A.D. 2026-Oct-17 00:00:00.0000, -5.214404947307855E+08, -1.711696848882238E+08, 8.283599451483528E+07,
2461337.500000000, A.D. 2026-Oct-24 00:00:00.0000, -5.194258293227203E+08, -1.799788860538918E+08, 8.330549623941073E+07,
2461344.500000000, A.D. 2026-Oct-31 00:00:00.0000, -5.172644357272663E+08, -1.887372419512092E+08, 8.375146254670851E+07,
2461351.500000000, A.D. 2026-Nov-07 00:00:00.0000, -5.149576739811334E+08, -1.974425569133277E+08, 8.417388887420210E+07,
2461358.500000000, A.D. 2026-Nov-14 00:00:00.0000, -5.125069222421394E+08, -2.060926701088040E+08, 8.457277600286441E+07,
2461365.500000000, A.D. 2026-Nov-21 00:00:00.0000, -5.099135761525859E+08, -2.146854532171163E+08, 8.494813009874518E+07,
2461372.500000000, A.D. 2026-Nov-28 00:00:00.0000, -5.071790504106896E+08, -2.232188096250283E+08, 8.529996283285743E+07,
2461379.500000000, A.D. 2026-Dec-05 00:00:00.0000, -5.043047789307832E+08, -2.316906758013304E+08, 8.562829119424340E+07,
2461386.500000000, A.D. 2026-Dec-12 00:00:00.0000, -5.012922134270471E+08, -2.400990217393452E+08, 8.593313723570690E+07,
2461393.500000000, A.D. 2026-Dec-19 00:00:00.0000, -4.981428223069013E+08, -2.484418504612069E+08, 8.621452792594884E+07,
2461400.500000000, A.D. 2026-Dec-26 00:00:00.0000, -4.948580900155506E+08, -2.567171974529823E+08, 8.647249505033296E+07,
2461407.500000000, A.D. 2027-Jan-02 00:00:00.0000, -4.914395165556979E+08, -2.649231302228135E+08, 8.670707511957732E+07,
2461414.500000000, A.D. 2027-Jan-09 00:00:00.0000, -4.878886170659230E+08, -2.730577479630285E+08, 8.691830927751486E+07,
2461421.500000000, A.D. 2027-Jan-16 00:00:00.0000, -4.842069214232207E+08, -2.811191813083172E+08, 8.710624320556511E+07,
2461428.500000000, A.D. 2027-Jan-23 00:00:00.0000, -4.803959738248214E+08, -2.891055922303627E+08, 8.727092701653650E+07,
2461435.500000000, A.D. 2027-Jan-30 00:00:00.0000, -4.764573321628004E+08, -2.970151741172923E+08, 8.741241511662436E+07,
2461442.500000000, A.D. 2027-Feb-06 00:00:00.0000, -4.723925667678669E+08, -3.048461516982287E+08, 8.753076602430511E+07,
2461449.500000000, A.D. 2027-Feb-13 00:00:00.0000, -4.682032589832854E+08, -3.125967795933050E+08, 8.762604228771687E+07,
2461456.500000000, A.D. 2027-Feb-20 00:00:00.0000, -4.638910019327485E+08, -3.202653402803481E+08, 8.769831065222126E+07,
2461463.500000000, A.D. 2027-Feb-27 00:00:00.0000, -4.594574020862049E+08, -3.278501446928004E+08, 8.774764208711928E+07,
2461470.500000000, A.D. 2027-Mar-06 00:00:00.0000, -4.549040786057489E+08, -3.353495335272902E+08, 8.777411155168450E+07,
2461477.500000000, A.D. 2027-Mar-13 00:00:00.0000, -4.502326620716252E+08, -3.427618772119550E+08, 8.777779781460863E+07,
2461484.500000000, A.D. 2027-Mar-20 00:00:00.0000, -4.454447937173192E+08, -3.500855753707753E+08, 8.775878336205101E+07,
2461491.500000000, A.D. 2027-Mar-27 00:00:00.0000, -4.405421249715114E+08, -3.573190563336393E+08, 8.771715433081672E+07,
2461498.500000000, A.D. 2027-Apr-03 00:00:00.0000, -4.355263171040509E+08, -3.644607767405209E+08, 8.765300044415992E+07,
2461505.500000000, A.D. 2027-Apr-10 00:00:00.0000, -4.303990409147518E+08, -3.715092212170115E+08, 8.756641494648901E+07,
2461512.500000000, A.D. 2027-Apr-17 00:00:00.0000, -4.251619764427454E+08, -3.784629021355428E+08, 8.745749453372774E+07,
2461519.500000000, A.D. 2027-Apr-24 00:00:00.0000, -4.198168126167266E+08, -3.853203595243816E+08, 8.732633926687442E+07,
2461526.500000000, A.D. 2027-May-01 00:00:00.0000, -4.143652465458315E+08, -3.920801610965171E+08, 8.717305244340985E+07,
2461533.500000000, A.D. 2027-May-08 00:00:00.0000, -4.088089821430091E+08, -3.987409016499643E+08, 8.699774045936958E+07,
2461540.500000000, A.D. 2027-May-15 00:00:00.0000, -4.031497295767908E+08, -4.053012008859593E+08, 8.680051287709707E+07,
2461547.500000000, A.D. 2027-May-22 00:00:00.0000, -3.973892071142621E+08, -4.117597022369474E+08, 8.658148263015267E+07,
2461554.500000000, A.D. 2027-May-29 00:00:00.0000, -3.915291419988590E+08, -4.181150741735117E+08, 8.634076593769918E+07,
2461561.500000000, A.D. 2027-Jun-05 00:00:00.0000, -3.855712694781873E+08, -4.243660108590755E+08, 8.607848210339840E+07,
2461568.500000000, A.D. 2027-Jun-12 00:00:00.0000, -3.795173319891156E+08, -4.305112317205774E+08, 8.579475341835783E+07,
2461575.500000000, A.D. 2027-Jun-19 00:00:00.0000, -3.733690788306083E+08, -4.365494808701108E+08, 8.548970512213638E+07,
2461582.500000000, A.D. 2027-Jun-26 00:00:00.0000, -3.671282660443584E+08, -4.424795266390695E+08, 8.516346537493996E+07,
2461589.500000000, A.D. 2027-Jul-03 00:00:00.0000, -3.607966563707436E+08, -4.483001612168751E+08, 8.481616522977112E+07,
2461596.500000000, A.D. 2027-Jul-10 00:00:00.0000, -3.543760192430695E+08, -4.540102003858842E+08, 8.444793860212889E+07,
2461603.500000000, A.D. 2027-Jul-17 00:00:00.0000, -3.478681307835832E+08, -4.596084833915418E+08, 8.405892223101954E+07,
2461610.500000000, A.D. 2027-Jul-24 00:00:00.0000, -3.412747736446055E+08, -4.650938730106837E+08, 8.364925561203177E+07,
2461617.500000000, A.D. 2027-Jul-31 00:00:00.0000, -3.345977362830854E+08, -4.704652555825219E+08, 8.321908088418384E+07,
2461624.500000000, A.D. 2027-Aug-07 00:00:00.0000, -3.278388118689381E+08, -4.757215398504995E+08, 8.276854278318197E+07,
2461631.500000000, A.D. 2027-Aug-14 00:00:00.0000, -3.209997991276703E+08, -4.808616548681358E+08, 8.229778885140119E+07,
2461638.500000000, A.D. 2027-Aug-21 00:00:00.0000, -3.140825044983709E+08, -4.858845503332891E+08, 8.180696957287611E+07,
2461645.500000000, A.D. 2027-Aug-28 00:00:00.0000, -3.070887421758243E+08, -4.907891981483603E+08, 8.129623821701173E+07,
2461652.500000000, A.D. 2027-Sep-04 00:00:00.0000, -3.000203332179821E+08, -4.955745927044703E+08, 8.076575070382853E+07,
2461659.500000000, A.D. 2027-Sep-11 00:00:00.0000, -2.928791051139287E+08, -5.002397505508181E+08, 8.021566556445137E+07,
2461666.500000000, A.D. 2027-Sep-18 00:00:00.0000, -2.856668916787975E+08, -5.047837100992090E+08, 7.964614393117097E+07,
2461673.500000000, A.D. 2027-Sep-25 00:00:00.0000, -2.783855330464187E+08, -5.092055314412232E+08, 7.905734952941713E+07,
2461680.500000000, A.D. 2027-Oct-02 00:00:00.0000, -2.710368756844049E+08, -5.135042962502706E+08, 7.844944866672538E+07,
2461687.500000000, A.D. 2027-Oct-09 00:00:00.0000, -2.636227724090412E+08, -5.176791077726562E+08, 7.782261021599905E+07,
2461694.500000000, A.D. 2027-Oct-16 00:00:00.0000, -2.561450823365569E+08, -5.217290909618959E+08, 7.717700558250086E+07,
2461701.500000000, A.D. 2027-Oct-23 00:00:00.0000, -2.486056705103991E+08, -5.256533927612142E+08, 7.651280862995757E+07,
2461708.500000000, A.D. 2027-Oct-30 00:00:00.0000, -2.410064068290721E+08, -5.294511819232615E+08, 7.583019558099526E+07,
2461715.500000000, A.D. 2027-Nov-06 00:00:00.0000, -2.333491654371417E+08, -5.331216472384704E+08, 7.512934509056604E+07,
2461722.500000000, A.D. 2027-Nov-13 00:00:00.0000, -2.256358265639267E+08, -5.366639962481458E+08, 7.441043850460432E+07,
2461729.500000000, A.D. 2027-Nov-20 00:00:00.0000, -2.178682779073933E+08, -5.400774566288165E+08, 7.367365985916808E+07,
2461736.500000000, A.D. 2027-Nov-27 00:00:00.0000, -2.100484139458173E+08, -5.433612772843572E+08, 7.291919571424323E+07,
2461743.500000000, A.D. 2027-Dec-04 00:00:00.0000, -2.021781352011563E+08, -5.465147282322736E+08, 7.214723508268881E+07,
2461750.500000000, A.D. 2027-Dec-11 00:00:00.0000, -1.942593480048405E+08, -5.495371002478831E+08, 7.135796942608786E+07,
2461757.500000000, A.D. 2027-Dec-18 00:00:00.0000, -1.862939644908496E+08, -5.524277046050919E+08, 7.055159266455311E+07,
2461764.500000000, A.D. 2027-Dec-25 00:00:00.0000, -1.782839026637298E+08, -5.551858729156046E+08, 6.972830118633810E+07,
2461771.500000000, A.D. 2028-Jan-01 00:00:00.0000, -1.702310864997086E+08, -5.578109570518519E+08, 6.888829385466987E+07,
$$EOE